[{"OBJECT_NAME":"STARLINK-2404","OBJECT_ID":"2021-027B","EPOCH":"2026-03-09T10:54:24.902496","MEAN_MOTION":15.30185413,"ECCENTRICITY":0.00012125,"INCLINATION":53.1593,"RA_OF_ASC_NODE":156.0452,"ARG_OF_PERICENTER":104.0491,"MEAN_ANOMALY":256.0644,"EPHEMERIS_TYPE":0,"CLASSIFICATION_TYPE":"U","NORAD_CAT_ID":48093,"ELEMENT_SET_NO":999,"REV_AT_EPOCH":27262,"BSTAR":0.00011922013,"MEAN_MOTION_DOT":3.172e-5,"MEAN_MOTION_DDOT":0},{"OBJECT_NAME":"COSMOS 2535 DEB","OBJECT_ID":"2019-039M","EPOCH":"2026-03-08T03:25:35.903424","MEAN_MOTION":15.28322551,"ECCENTRICITY":0.0014917,"INCLINATION":97.5619,"RA_OF_ASC_NODE":139.2722,"ARG_OF_PERICENTER":329.0964,"MEAN_ANOMALY":30.9396,"EPHEMERIS_TYPE":0,"CLASSIFICATION_TYPE":"U","NORAD_CAT_ID":44641,"ELEMENT_SET_NO":999,"REV_AT_EPOCH":35167,"BSTAR":0.0011539757,"MEAN_MOTION_DOT":0.0003196,"MEAN_MOTION_DDOT":0}]
